NAYIF-1 (EO-88)         
1 42017U 17008BX  20107.66523882  .00001593  00000-0  64117-4 0  9991
2 42017  97.3645 176.1196 0006587 165.5363 194.6065 15.26324660176129
MAX VALIER SAT          
1 42778U 17036P   20107.43340812  .00000914  00000-0  42337-4 0  9997
2 42778  97.3118 162.7649 0010795 235.3364 124.6855 15.22509339156295
RADFXSAT (FOX-1B)       
1 43017U 17073E   20107.48094421  .00000344  00000-0  32817-4 0  9991
2 43017  97.7249  22.1033 0255705 252.1996 105.1169 14.78882225130008
FOX-1D (AO-92)          
1 43137U 18004AC  20107.17664199  .00001016  00000-0  44914-4 0  9998
2 43137  97.4497 178.7496 0007494 275.4108  84.6274 15.24004677125569
DIWATA-2B               
1 43678U 18084H   20107.75866251  .00000300  00000-0  35588-4 0  9995
2 43678  97.8741 226.1977 0010641  29.0404 331.1409 14.91621243 79821
ES'HAIL 2               
1 43700U 18090A   20107.24910535  .00000126  00000-0  00000-0 0  9990
2 43700   0.0215 127.8747 0002653 294.6220 257.8180  1.00272658  5086
FOX-1CLIFF (AO-95)      
1 43770U 18099N   20107.66303092  .00000292  00000-0  31886-4 0  9990
2 43770  97.7094 180.1090 0015564  48.0441 312.2103 14.94948765 74684
ITASAT 1                
1 43786U 18099AE  20107.20564641  .00000508  00000-0  51207-4 0  9995
2 43786  97.7110 180.0341 0016100  43.5443 316.7046 14.95293619 74639
JY1SAT (JO-97)          
1 43803U 18099AX  20107.49500621  .00000421  00000-0  43134-4 0  9998
2 43803  97.7072 180.1529 0016201  43.1474 317.1013 14.95465645 74670
PSAT2 (NO-104)          
1 44354U 19036R   20107.57244156  .00017426  00000-0  25988-3 0  9998
2 44354  28.5310  66.7402 0368333  10.6068 350.2049 15.02424542 44496
BRICSAT2 (NO-103)       
1 44355U 19036S   20107.58705036  .00031458  00000-0  45287-3 0  9994
2 44355  28.5308  61.0114 0350819  19.9170 341.4751 15.06853997 44551
JAISAT-1                
1 44419U 19038F   20107.64151941  .00001037  00000-0  62728-4 0  9994
2 44419  97.5325  69.9897 0021337 348.4248  11.6489 15.12685165 43255
DUCHIFAT-3              
1 44854U 19089C   20107.34827920  .00000353  00000-0  34975-4 0  9990
2 44854  36.9668 105.3679 0009184 283.6658  76.3063 14.99022649 18972
ORBITAL FACTORY 2 (OF-2)
1 45113U 19071C   20107.43391774  .00001943  00000-0  71314-4 0  9997
2 45113  51.6429 303.0977 0013060 191.2639 168.8052 15.33116286 11618
HUSKYSAT-1              
1 45119U 19071J   20107.55188342  .00002434  00000-0  85795-4 0  9995
2 45119  51.6426 302.3859 0012384 187.9294 172.1494 15.33356368 11625
